{
  "type": "FeatureCollection",
  "features": [
    {
      "type": "Feature",
      "properties": {
        "norad_id": 41866,
        "name": "GOES 16",
        "group": "weather",
        "lat": 0.03026347805265649,
        "lon": -131.85492890530685,
        "alt_km": 35775.27270181132,
        "timestamp": "2025-12-09T16:56:36.222543+00:00",
        "meta_object_name": "GOES 16",
        "meta_object_id": "2016-071A",
        "meta_epoch": "2025-12-09T12:17:01.093344",
        "meta_mean_motion": 1.0026869,
        "meta_eccentricity": 0.0003266,
        "meta_inclination": 0.0634,
        "meta_ra_of_asc_node": 105.9696,
        "meta_arg_of_pericenter": 154.5939,
        "meta_mean_anomaly": 257.5193,
        "meta_ephemeris_type": 0,
        "meta_classification_type": "U",
        "meta_norad_cat_id": 41866,
        "meta_element_set_no": 999,
        "meta_rev_at_epoch": 3320,
        "meta_bstar": 0,
        "meta_mean_motion_dot": -8.8e-07,
        "meta_mean_motion_ddot": 0,
        "tle_line1": "1 41866U 16071A   25343.51181821 -.00000088  00000+0  00000+0 0  9999",
        "tle_line2": "2 41866   0.0634 105.9696 0003266 154.5939 257.5193  1.00268690 33201"
      },
      "geometry": {
        "type": "Point",
        "coordinates": [
          -131.85492890530685,
          0.03026347805265649
        ]
      }
    },
    {
      "type": "Feature",
      "properties": {
        "norad_id": 41882,
        "name": "FENGYUN 4A",
        "group": "weather",
        "lat": 0.471711555366578,
        "lon": 96.63873639249034,
        "alt_km": 35798.278756292326,
        "timestamp": "2025-12-09T16:56:36.222555+00:00",
        "meta_object_name": "FENGYUN 4A",
        "meta_object_id": "2016-077A",
        "meta_epoch": "2025-12-08T17:16:38.775936",
        "meta_mean_motion": 1.00275455,
        "meta_eccentricity": 0.00049335,
        "meta_inclination": 1.839,
        "meta_ra_of_asc_node": 82.4323,
        "meta_arg_of_pericenter": 143.079,
        "meta_mean_anomaly": 235.2066,
        "meta_ephemeris_type": 0,
        "meta_classification_type": "U",
        "meta_norad_cat_id": 41882,
        "meta_element_set_no": 999,
        "meta_rev_at_epoch": 3302,
        "meta_bstar": 0,
        "meta_mean_motion_dot": -3.55e-06,
        "meta_mean_motion_ddot": 0,
        "tle_line1": "1 41882U 16077A   25342.71989324 -.00000355  00000+0  00000+0 0  9995",
        "tle_line2": "2 41882   1.8390  82.4323 0004933 143.0790 235.2066  1.00275455 33022"
      },
      "geometry": {
        "type": "Point",
        "coordinates": [
          96.63873639249034,
          0.471711555366578
        ]
      }
    },
    {
      "type": "Feature",
      "properties": {
        "norad_id": 41884,
        "name": "CYGFM05",
        "group": "weather",
        "lat": -4.541040064423951,
        "lon": 60.41866895289326,
        "alt_km": 429.9190675457403,
        "timestamp": "2025-12-09T16:56:36.222568+00:00",
        "meta_object_name": "CYGFM05",
        "meta_object_id": "2016-078A",
        "meta_epoch": "2025-12-09T12:19:57.650880",
        "meta_mean_motion": 15.47451698,
        "meta_eccentricity": 0.0009701,
        "meta_inclination": 34.9597,
        "meta_ra_of_asc_node": 68.2006,
        "meta_arg_of_pericenter": 153.2324,
        "meta_mean_anomaly": 206.89,
        "meta_ephemeris_type": 0,
        "meta_classification_type": "U",
        "meta_norad_cat_id": 41884,
        "meta_element_set_no": 999,
        "meta_rev_at_epoch": 49926,
        "meta_bstar": 0.0005062,
        "meta_mean_motion_dot": 0.00026846,
        "meta_mean_motion_ddot": 0,
        "tle_line1": "1 41884U 16078A   25343.51386170  .00026846  00000+0  50620-3 0  9996",
        "tle_line2": "2 41884  34.9597  68.2006 0009701 153.2324 206.8900 15.47451698499268"
      },
      "geometry": {
        "type": "Point",
        "coordinates": [
          60.41866895289326,
          -4.541040064423951
        ]
      }
    },
    {
      "type": "Feature",
      "properties": {
        "norad_id": 41885,
        "name": "CYGFM04",
        "group": "weather",
        "lat": -12.314266937789784,
        "lon": -119.9662524411334,
        "alt_km": 410.7505826141023,
        "timestamp": "2025-12-09T16:56:36.222579+00:00",
        "meta_object_name": "CYGFM04",
        "meta_object_id": "2016-078B",
        "meta_epoch": "2025-12-09T11:26:25.929600",
        "meta_mean_motion": 15.50147647,
        "meta_eccentricity": 0.0009052,
        "meta_inclination": 34.9355,
        "meta_ra_of_asc_node": 43.3137,
        "meta_arg_of_pericenter": 181.434,
        "meta_mean_anomaly": 178.6357,
        "meta_ephemeris_type": 0,
        "meta_classification_type": "U",
        "meta_norad_cat_id": 41885,
        "meta_element_set_no": 999,
        "meta_rev_at_epoch": 49943,
        "meta_bstar": 0.00050977,
        "meta_mean_motion_dot": 0.00029737,
        "meta_mean_motion_ddot": 0,
        "tle_line1": "1 41885U 16078B   25343.47668900  .00029737  00000+0  50977-3 0  9993",
        "tle_line2": "2 41885  34.9355  43.3137 0009052 181.4340 178.6357 15.50147647499431"
      },
      "geometry": {
        "type": "Point",
        "coordinates": [
          -119.9662524411334,
          -12.314266937789784
        ]
      }
    },
    {
      "type": "Feature",
      "properties": {
        "norad_id": 41886,
        "name": "CYGFM02",
        "group": "weather",
        "lat": -11.222796775897525,
        "lon": -123.31632179889434,
        "alt_km": 405.5044420471977,
        "timestamp": "2025-12-09T16:56:36.222590+00:00",
        "meta_object_name": "CYGFM02",
        "meta_object_id": "2016-078C",
        "meta_epoch": "2025-12-09T11:27:14.388768",
        "meta_mean_motion": 15.51512579,
        "meta_eccentricity": 0.0010744,
        "meta_inclination": 34.9443,
        "meta_ra_of_asc_node": 41.678,
        "meta_arg_of_pericenter": 180.8999,
        "meta_mean_anomaly": 179.1705,
        "meta_ephemeris_type": 0,
        "meta_classification_type": "U",
        "meta_norad_cat_id": 41886,
        "meta_element_set_no": 999,
        "meta_rev_at_epoch": 49956,
        "meta_bstar": 0.00051991,
        "meta_mean_motion_dot": 0.00031877,
        "meta_mean_motion_ddot": 0,
        "tle_line1": "1 41886U 16078C   25343.47724987  .00031877  00000+0  51991-3 0  9997",
        "tle_line2": "2 41886  34.9443  41.6780 0010744 180.8999 179.1705 15.51512579499566"
      },
      "geometry": {
        "type": "Point",
        "coordinates": [
          -123.31632179889434,
          -11.222796775897525
        ]
      }
    },
    {
      "type": "Feature",
      "properties": {
        "norad_id": 41887,
        "name": "CYGFM01",
        "group": "weather",
        "lat": 16.570455160444606,
        "lon": 94.54111172428543,
        "alt_km": 421.8022609294776,
        "timestamp": "2025-12-09T16:56:36.222601+00:00",
        "meta_object_name": "CYGFM01",
        "meta_object_id": "2016-078D",
        "meta_epoch": "2025-12-09T10:37:25.878432",
        "meta_mean_motion": 15.48020777,
        "meta_eccentricity": 0.0009261,
        "meta_inclination": 34.9427,
        "meta_ra_of_asc_node": 71.0385,
        "meta_arg_of_pericenter": 144.2628,
        "meta_mean_anomaly": 215.8715,
        "meta_ephemeris_type": 0,
        "meta_classification_type": "U",
        "meta_norad_cat_id": 41887,
        "meta_element_set_no": 999,
        "meta_rev_at_epoch": 49919,
        "meta_bstar": 0.00050597,
        "meta_mean_motion_dot": 0.00027371,
        "meta_mean_motion_ddot": 0,
        "tle_line1": "1 41887U 16078D   25343.44266063  .00027371  00000+0  50597-3 0  9996",
        "tle_line2": "2 41887  34.9427  71.0385 0009261 144.2628 215.8715 15.48020777499190"
      },
      "geometry": {
        "type": "Point",
        "coordinates": [
          94.54111172428543,
          16.570455160444606
        ]
      }
    },
    {
      "type": "Feature",
      "properties": {
        "norad_id": 41888,
        "name": "CYGFM08",
        "group": "weather",
        "lat": 31.29348542324402,
        "lon": 112.85622567112917,
        "alt_km": 415.19304474365435,
        "timestamp": "2025-12-09T16:56:36.222612+00:00",
        "meta_object_name": "CYGFM08",
        "meta_object_id": "2016-078E",
        "meta_epoch": "2025-12-09T12:01:25.449600",
        "meta_mean_motion": 15.49220631,
        "meta_eccentricity": 0.0011132,
        "meta_inclination": 34.9463,
        "meta_ra_of_asc_node": 53.6864,
        "meta_arg_of_pericenter": 169.3158,
        "meta_mean_anomaly": 190.7802,
        "meta_ephemeris_type": 0,
        "meta_classification_type": "U",
        "meta_norad_cat_id": 41888,
        "meta_element_set_no": 999,
        "meta_rev_at_epoch": 49943,
        "meta_bstar": 0.00051656,
        "meta_mean_motion_dot": 0.0002918,
        "meta_mean_motion_ddot": 0,
        "tle_line1": "1 41888U 16078E   25343.50098900  .00029180  00000+0  51656-3 0  9994",
        "tle_line2": "2 41888  34.9463  53.6864 0011132 169.3158 190.7802 15.49220631499432"
      },
      "geometry": {
        "type": "Point",
        "coordinates": [
          112.85622567112917,
          31.29348542324402
        ]
      }
    }
  ]
}